STARLINK-35743          
1 66578U 25268X   26197.45837607  .00012045  00000+0  44638-3 0  9999
2 66578  42.9974 339.8036 0001724 201.1274 158.9506 15.27589193 37657
STARLINK-35868          
1 66579U 25268Y   26197.45452774  .00007194  00000+0  27076-3 0  9994
2 66579  43.0093 339.7870 0002726 283.5959  76.4589 15.27573320 37654
STARLINK-35872          
1 66580U 25268Z   26197.38528429  .00008954  00000+0  33447-3 0  9993
2 66580  43.0037 340.1202 0001631 264.2637  95.8029 15.27585295 37649
STARLINK-35744          
1 66581U 25268AA  26197.38143123  .00011834  00000+0  43875-3 0  9995
2 66581  43.0083 340.0969 0003191 292.7572  67.2942 15.27588531 37640
STARLINK-35746          
1 66582U 25268AB  26197.37500248  .00009396  00000+0  35043-3 0  9998
2 66582  43.0024 340.0411 0001014 255.5608 104.5132 15.27590860 37641
STARLINK-35941          
1 66583U 25268AC  26197.43653217  .00010512  00000+0  39082-3 0  9990
2 66583  43.0002 339.6378 0000966 221.6833 138.3945 15.27593917 37657
STARLINK-35939          
1 66584U 25268AD  26197.43267969  .00010279  00000+0  38242-3 0  9993
2 66584  42.9998 339.6100 0000738 243.2253 116.8524 15.27587411 37652
STARLINK-35963          
1 66585U 25268AE  26197.42254917  .00013849  00000+0  51176-3 0  9999
2 66585  42.9983 340.4035 0000765 226.2174 133.8615 15.27586009 37648
STARLINK-36076          
1 66588U 25270A   26197.59589231  .00010988  00000+0  40809-3 0  9995
2 66588  42.9967  47.9129 0001017 311.5187  48.5577 15.27589699 37422
STARLINK-35447          
1 66589U 25270B   26197.28952417  .00008787  00000+0  32840-3 0  9992
2 66589  43.0005  49.9138 0000626   6.4087 353.6772 15.27586375 37485
STARLINK-35429          
1 66590U 25270C   26197.32035078  .00010693  00000+0  39747-3 0  9996
2 66590  43.0063  50.1445 0002875 270.9885  89.0637 15.27583784 37489
STARLINK-36058          
1 66591U 25270D   26195.98692529  .00008281  00000+0  31003-3 0  9994
2 66591  43.0015  57.3349 0001413 272.1725  87.8965 15.27588734 37179
STARLINK-36066          
1 66592U 25270E   26197.63444279  .00011595  00000+0  43006-3 0  9994
2 66592  43.0046  48.2024 0000873 284.9685  75.1070 15.27592456 37328
STARLINK-36031          
1 66593U 25270F   26197.27538688  .00008560  00000+0  32018-3 0  9992
2 66593  43.0018  49.7989 0000711 324.1673  35.9131 15.27584366 37377
STARLINK-36032          
1 66594U 25270G   26197.63186085  .00012757  00000+0  47197-3 0  9990
2 66594  43.0025  48.1779 0001266 262.8986  97.1721 15.27603245 37235
STARLINK-35711          
1 66595U 25270H   26196.03690028  .00008568  00000+0  32039-3 0  9995
2 66595  42.9979  56.8454 0000780  69.7978 290.2957 15.27590902 37291
STARLINK-35811          
1 66596U 25270J   26197.64215149  .00007720  00000+0  28971-3 0  9990
2 66596  43.0022  48.2627 0001294 272.4107  87.6597 15.27586044 37535
STARLINK-35820          
1 66597U 25270K   26197.62416105  .00009819  00000+0  36604-3 0  9997
2 66597  42.9999  48.1254 0001466 260.1225  99.9461 15.27565082 37533
STARLINK-35981          
1 66598U 25270L   26197.00229085  .00008456  00000+0  31643-3 0  9993
2 66598  43.0032  51.1887 0003706  51.5646 308.5538 15.27583548 37180
STARLINK-35930          
1 66599U 25270M   26197.61387271  .00000786  00000+0  38093-4 0  9998
2 66599  43.0001  48.0428 0001356 261.6636  98.4062 15.27571626 37423
STARLINK-35980          
1 66600U 25270N   26197.63958097  .00009469  00000+0  35305-3 0  9992
2 66600  43.0004  48.2376 0000765 255.7841 104.2926 15.27590270 37328
STARLINK-35978          
1 66601U 25270P   26197.61259667  .00006878  00000+0  25913-3 0  9993
2 66601  42.9945  48.0362 0000220  36.9499 323.1368 15.27589840 37264
STARLINK-36050          
1 66602U 25270Q   26197.63829749  .00007146  00000+0  26893-3 0  9997
2 66602  43.0025  48.2321 0001231 272.2336  87.8374 15.27583286 37327
STARLINK-36048          
1 66603U 25270R   26196.94459703  .00012237  00000+0  45321-3 0  9994
2 66603  42.9985  51.6175 0001836 260.0100 100.0545 15.27597685 37226
STARLINK-35977          
1 66604U 25270S   26196.99841670  .00014975  00000+0  55250-3 0  9991
2 66604  43.0025  51.1571 0002161 254.3427 105.7187 15.27585990 37331
STARLINK-36052          
1 66605U 25270T   26197.62801580  .00009002  00000+0  33615-3 0  9995
2 66605  43.0014  48.1463 0001041 271.0874  88.9858 15.27589671 37421
STARLINK-36063          
1 66606U 25270U   26197.01512431  .00005440  00000+0  20702-3 0  9998
2 66606  42.9967  51.2846 0000879 307.8645  52.2127 15.27583591 37337
STARLINK-35993          
1 66607U 25270V   26197.62544820  .00007491  00000+0  28147-3 0  9992
2 66607  43.0025  48.1270 0001446 263.3119  96.7568 15.27580413 37325
STARLINK-36036          
1 66608U 25270W   26197.01126719  .00015015  00000+0  55396-3 0  9996
2 66608  43.0030  51.2479 0000984 277.3861  82.6879 15.27584993 37172
STARLINK-36034          
1 66609U 25270X   26197.64600350  .00010400  00000+0  38677-3 0  9990
2 66609  43.0015  48.2792 0001253 251.0803 108.9913 15.27592166 37267
