OBJECT_NAME,OBJECT_ID,EPOCH,MEAN_MOTION,ECCENTRICITY,INCLINATION,RA_OF_ASC_NODE,ARG_OF_PERICENTER,MEAN_ANOMALY,EPHEMERIS_TYPE,CLASSIFICATION_TYPE,NORAD_CAT_ID,ELEMENT_SET_NO,REV_AT_EPOCH,BSTAR,MEAN_MOTION_DOT,MEAN_MOTION_DDOT
STARLINK-35743,2025-268X,2026-07-16T11:00:03.692448,15.27589193,.00017242,42.9974,339.8036,201.1274,158.9506,0,U,66578,999,3765,.44637927E-3,.12045E-3,0
STARLINK-35868,2025-268Y,2026-07-16T10:54:31.196736,15.27573320,.00027268,43.0093,339.7870,283.5959,76.4589,0,U,66579,999,3765,.2707625E-3,.7194E-4,0
STARLINK-35872,2025-268Z,2026-07-16T09:14:48.562656,15.27585295,.00016315,43.0037,340.1202,264.2637,95.8029,0,U,66580,999,3764,.33446877E-3,.8954E-4,0
STARLINK-35744,2025-268AA,2026-07-16T09:09:15.658272,15.27588531,.00031918,43.0083,340.0969,292.7572,67.2942,0,U,66581,999,3764,.43874929E-3,.11834E-3,0
STARLINK-35746,2025-268AB,2026-07-16T09:00:00.214272,15.27590860,.00010144,43.0024,340.0411,255.5608,104.5132,0,U,66582,999,3764,.3504255E-3,.9396E-4,0
STARLINK-35941,2025-268AC,2026-07-16T10:28:36.379488,15.27593917,.00009665,43.0002,339.6378,221.6833,138.3945,0,U,66583,999,3765,.39082499E-3,.10512E-3,0
STARLINK-35939,2025-268AD,2026-07-16T10:23:03.525216,15.27587411,.00007385,42.9998,339.6100,243.2253,116.8524,0,U,66584,999,3765,.38242492E-3,.10279E-3,0
STARLINK-35963,2025-268AE,2026-07-16T10:08:28.248288,15.27586009,.0000765,42.9983,340.4035,226.2174,133.8615,0,U,66585,999,3764,.5117579E-3,.13849E-3,0
STARLINK-36076,2025-270A,2026-07-16T14:18:05.095584,15.27589699,.00010175,42.9967,47.9129,311.5187,48.5577,0,U,66588,999,3742,.40809113E-3,.10988E-3,0
STARLINK-35447,2025-270B,2026-07-16T06:56:54.888288,15.27586375,.0000626,43.0005,49.9138,6.4087,353.6772,0,U,66589,999,3748,.32839842E-3,.8787E-4,0
STARLINK-35429,2025-270C,2026-07-16T07:41:18.307392,15.27583784,.00028752,43.0063,50.1445,270.9885,89.0637,0,U,66590,999,3748,.39746729E-3,.10693E-3,0
STARLINK-36058,2025-270D,2026-07-14T23:41:10.345056,15.27588734,.00014138,43.0015,57.3349,272.1725,87.8965,0,U,66591,999,3717,.31003028E-3,.8281E-4,0
STARLINK-36066,2025-270E,2026-07-16T15:13:35.857056,15.27592456,.00008734,43.0046,48.2024,284.9685,75.1070,0,U,66592,999,3732,.43005709E-3,.11595E-3,0
STARLINK-36031,2025-270F,2026-07-16T06:36:33.426432,15.27584366,.00007119,43.0018,49.7989,324.1673,35.9131,0,U,66593,999,3737,.32018034E-3,.856E-4,0
STARLINK-36032,2025-270G,2026-07-16T15:09:52.777440,15.27603245,.00012662,43.0025,48.1779,262.8986,97.1721,0,U,66594,999,3723,.47196601E-3,.12757E-3,0
STARLINK-35711,2025-270H,2026-07-15T00:53:08.184192,15.27590902,.00007809,42.9979,56.8454,69.7978,290.2957,0,U,66595,999,3729,.32038752E-3,.8568E-4,0
STARLINK-35811,2025-270J,2026-07-16T15:24:41.888736,15.27586044,.00012941,43.0022,48.2627,272.4107,87.6597,0,U,66596,999,3753,.28970693E-3,.772E-4,0
STARLINK-35820,2025-270K,2026-07-16T14:58:47.514720,15.27565082,.00014668,42.9999,48.1254,260.1225,99.9461,0,U,66597,999,3753,.36603724E-3,.9819E-4,0
STARLINK-35981,2025-270L,2026-07-16T00:03:17.929440,15.27583548,.00037069,43.0032,51.1887,51.5646,308.5538,0,U,66598,999,3718,.31643095E-3,.8456E-4,0
STARLINK-35930,2025-270M,2026-07-16T14:43:58.602144,15.27571626,.00013561,43.0001,48.0428,261.6636,98.4062,0,U,66599,999,3742,.380926E-4,.786E-5,0
STARLINK-35980,2025-270N,2026-07-16T15:20:59.795808,15.27590270,.00007654,43.0004,48.2376,255.7841,104.2926,0,U,66600,999,3732,.35304945E-3,.9469E-4,0
STARLINK-35978,2025-270P,2026-07-16T14:42:08.352288,15.27589840,.00002206,42.9945,48.0362,36.9499,323.1368,0,U,66601,999,3726,.25912885E-3,.6878E-4,0
STARLINK-36050,2025-270Q,2026-07-16T15:19:08.903136,15.27583286,.00012314,43.0025,48.2321,272.2336,87.8374,0,U,66602,999,3732,.26893327E-3,.7146E-4,0
STARLINK-36048,2025-270R,2026-07-15T22:40:13.183392,15.27597685,.0001836,42.9985,51.6175,260.0100,100.0545,0,U,66603,999,3722,.45321E-3,.12237E-3,0
STARLINK-35977,2025-270S,2026-07-15T23:57:43.202880,15.27585990,.00021615,43.0025,51.1571,254.3427,105.7187,0,U,66604,999,3733,.55249605E-3,.14975E-3,0
STARLINK-36052,2025-270T,2026-07-16T15:04:20.565120,15.27589671,.0001041,43.0014,48.1463,271.0874,88.9858,0,U,66605,999,3742,.33615256E-3,.9002E-4,0
STARLINK-36063,2025-270U,2026-07-16T00:21:46.740384,15.27583591,.00008791,42.9967,51.2846,307.8645,52.2127,0,U,66606,999,3733,.20701963E-3,.544E-4,0
STARLINK-35993,2025-270V,2026-07-16T15:00:38.724480,15.27580413,.00014465,43.0025,48.1270,263.3119,96.7568,0,U,66607,999,3732,.28147459E-3,.7491E-4,0
STARLINK-36036,2025-270W,2026-07-16T00:16:13.485216,15.27584993,.00009843,43.0030,51.2479,277.3861,82.6879,0,U,66608,999,3717,.55396425E-3,.15015E-3,0
STARLINK-36034,2025-270X,2026-07-16T15:30:14.702400,15.27592166,.00012534,43.0015,48.2792,251.0803,108.9913,0,U,66609,999,3726,.38677217E-3,.104E-3,0
